<?xml version="1.0" encoding="UTF-8"?>
<kml xmlns="http://www.opengis.net/kml/2.2" xmlns:gx="http://www.google.com/kml/ext/2.2">
    <Document id="1">
        <Style id="4">
            <LineStyle id="5">
                <color>641400F0</color>
                <colorMode>normal</colorMode>
            </LineStyle>
            <PolyStyle id="6">
                <color>641400F0</color>
                <colorMode>normal</colorMode>
                <fill>1</fill>
                <outline>1</outline>
            </PolyStyle>
        </Style>
        <open>1</open>
        <Placemark id="3">
            <name>Rocket Trajectory - Powered by RocketPy</name>
            <styleUrl>#4</styleUrl>
            <LineString id="2">
                <extrude>1</extrude>
                <altitudeMode>absolute</altitudeMode>
                <coordinates>-48.9540861,-21.943052799999997,420.0 -48.9540861,-21.943052799999997,420.0 -48.9540861,-21.943052799999997,420.0 -48.9540861,-21.943052799999997,420.0 -48.9540861,-21.943052799999997,420.0 -48.9540861,-21.943052799999997,420.0 -48.9540861,-21.943052799999997,420.0 -48.9540861,-21.943052799999997,420.0 -48.9540861,-21.943052799999997,420.0 -48.9540861,-21.943052799999997,420.0 -48.9540861,-21.943052799999997,420.0 -48.9540861,-21.943052799999997,420.0 -48.9540861,-21.943052799999997,420.0 -48.9540861,-21.943052799999997,420.0 -48.9540861,-21.943052799999997,420.0 -48.9540861,-21.943052799999997,420.0 -48.9540861,-21.943052799999997,420.0 -48.9540861,-21.943052799999997,419.99999999999994 -48.9540861,-21.943052799999997,420.0 -48.9540861,-21.943052799999997,420.0 -48.9540861,-21.943052799999997,419.99999999999994 -48.9540861,-21.943052799999997,420.0 -48.9540861,-21.943052799999997,420.0 -48.9540861,-21.943052799999997,420.0 -48.9540861,-21.943052799999997,419.99999999999994 -48.9540861,-21.943052799999997,420.00000000000006 -48.9540861,-21.943052799999997,420.0 -48.9540861,-21.943052799999997,420.0 -48.9540861,-21.943052799999997,420.0 -48.9540861,-21.943052799999997,420.0 -48.9540861,-21.943052799999997,419.99999999999994 -48.9540861,-21.943052799999688,420.0000001948985 -48.9540861,-21.943052799998455,420.000000974492 -48.9540861,-21.943052799856382,420.0000906249361 -48.9540861,-21.94305279959078,420.0002582293118 -48.9540861,-21.94305279075906,420.0058313120971 -48.9540861,-21.943052769578106,420.01919715013844 -48.9540861,-21.943052736052113,420.0403530824301 -48.9540861,-21.943051722770882,420.679764701478 -48.9540861,-21.943049480005747,422.095018476945 -48.9540861,-21.94304601274992,424.2829635365116 -48.9540861,-21.94304577707405,424.4316822577785 -48.95408610000095,-21.94304556259757,424.56673961500945 -48.9540861000028,-21.943045344535694,424.70377572347104 -48.95408610000814,-21.94304490124311,424.9818044854555 -48.95408610001647,-21.94304444361682,425.2677444144498 -48.95408610002706,-21.94304397166465,425.56159164652814 -48.954086100067975,-21.943041835573613,426.8805428886328 -48.95408609998309,-21.94303944788794,428.33831528732884 -48.95408609947508,-21.943036808780555,429.93459999546985 -48.95408609803013,-21.943033917992256,431.66906688787856 -48.954086097599784,-21.943033349717417,432.00854777148373 -48.954086097104614,-21.943032772614572,432.3528412743917 -48.954086096538155,-21.943032186674404,432.7019449758767 -48.95408609519125,-21.943031011561093,433.4007194807786 -48.95408609349241,-21.94302980231624,434.1179753103828 -48.95408609138732,-21.943028558842197,434.8536932336223 -48.954086088762146,-21.943027254576524,435.6234457103708 -48.954086085595584,-21.943025914425117,436.4123801538171 -48.954086081828386,-21.943024538246476,437.22047477101205 -48.95408607343037,-21.94302198599279,438.7138613764786 -48.95408606263334,-21.943019316992554,440.26836383596884 -48.95408604923048,-21.943016530259456,441.8838513365683 -48.95408603310901,-21.94301362476225,443.5601875493268 -48.954086024915135,-21.9430122700539,444.3390664615887 -48.95408601617859,-21.9430108907037,445.13037534397307 -48.95408600691799,-21.94300948662327,445.93410128807267 -48.95408598766829,-21.943006708520496,447.5192302486545 -48.954085966808954,-21.9430038375353,449.15040413692367 -48.95408594465939,-21.943000873180008,450.82753259466614 -48.95408592160191,-21.942997815020632,452.5505236284293 -48.95408590296297,-21.942995324752037,453.94840072827554 -48.95408588423332,-21.94299277519816,455.3749748155784 -48.954085865621,-21.942990166230647,456.8302005748422 -48.95408584731642,-21.942987497740294,458.3140326939898 -48.95408584073181,-21.942986506717027,458.8639559612687 -48.954085834217445,-21.94298550771235,459.4176987500319 -48.95408582777948,-21.942984500722346,459.9752588334677 -48.95408580964163,-21.942981543431266,461.609234571801 -48.954085792268515,-21.942978519236743,463.27506613446127 -48.95408577569357,-21.94297542806407,464.97269913618936 -48.95408576340355,-21.942972991003796,466.3076218496125 -48.954085753563035,-21.94297094453022,467.42631965975124 -48.95408574398743,-21.94296887057303,468.5579858855491 -48.954085734640685,-21.94296676912154,469.7026060070152 -48.95408572283704,-21.94296401041223,471.2021994180778 -48.95408571125299,-21.94296120568604,472.72340866899316 -48.95408569976926,-21.94295835493677,474.26619940172367 -48.9540856882681,-21.942955458169475,475.8305398423331 -48.954085670935996,-21.94295107707557,478.1903319512692 -48.95408565297583,-21.942946594863013,480.5973574390239 -48.95408563411423,-21.942942011647663,483.0515145324017 -48.954085614168434,-21.94293732755713,485.55269981111854 -48.954085593052305,-21.94293254270376,488.10080790299924 -48.9540855707673,-21.94292765715827,490.6957315286986 -48.954085547385404,-21.942922670925835,493.33736115376604 -48.954085523029555,-21.942917583929972,496.0255844943614 -48.954085497854905,-21.942912396009195,498.7602862929115 -48.9540854720331,-21.942907106928928,501.54134853639187 -48.95408544574044,-21.94290171640733,504.36865106148656 -48.954085419149386,-21.94289622415052,507.24207239585155 -48.954085392421334,-21.94289062989067,510.1614906665719 -48.95408536569818,-21.942884933419545,513.1267844106018 -48.9540853390912,-21.942879134611324,516.137833142388 -48.95408531266774,-21.942873233430973,519.194517583576 -48.95408528643847,-21.94286722992782,522.2967195359978 -48.954085260349686,-21.942861124217217,525.4443214601156 -48.954085234285046,-21.94285491645537,528.6372058796376 -48.95408520807929,-21.942848606812973,531.8752547517117 -48.95408518154337,-21.942842195452567,535.1583489235278 -48.95408515449722,-21.94283568251182,538.4863677321995 -48.9540851268035,-21.942829068093353,541.8591887644947 -48.954085098393705,-21.942822352260286,545.276687755385 -48.954085069279834,-21.942815535035898,548.7387385834262 -48.954085039548296,-21.942808616406328,552.2452133337492 -48.954085006033466,-21.942800827690384,556.1843307166905 -48.95408497853079,-21.942794409445163,559.4238379834138 -48.95408495089453,-21.942787908826624,562.6990478415887 -48.954084923208484,-21.94278132579432,566.0098635394895 -48.954084895522236,-21.94277466033167,569.3561883248867 -48.95408486784891,-21.942767912456574,572.7379257203423 -48.95408484016859,-21.942761082226845,576.1549796698528 -48.95408481243521,-21.9427541697385,579.6072545081511 -48.954084784585284,-21.942747175116775,583.0946547485478 -48.95408475260792,-21.942739102232444,587.1125209384404 -48.954084720286154,-21.94273092301741,591.175757997463 -48.954084687541545,-21.942722637646717,595.2842217366259 -48.954084654335055,-21.942714246251136,599.437766000485 -48.95408462067662,-21.94270574891451,603.6362426122735 -48.9540845866239,-21.942697145683955,607.8795016336159 -48.954084561919096,-21.9426908871541,610.961628027653 -48.95408455869067,-21.94269006757576,611.364955003253 -48.954084555460454,-21.942689247075382,611.7686690113037 -48.95408455222853,-21.94268842565836,612.1727673122679 -48.95408454576007,-21.942686780102576,612.9821023722013 -48.95408453928595,-21.94268513094588,613.7929410229307 -48.954084532806924,-21.94268347822893,614.6052624970896 -48.95408451292478,-21.942678390279724,617.1043478574283 -48.954084493019884,-21.942673270580087,619.6165009544015 -48.954084473103535,-21.94266812029591,622.1411326821932 -48.954084444070396,-21.94266056214904,625.8415440301839 -48.95408441503145,-21.942652945561157,629.5651951331822 -48.95408439221451,-21.94264692437596,632.5051196369368 -48.954084369382855,-21.942640871244038,635.4573442675811 -48.954084346527445,-21.94263478806803,638.4209305767231 -48.954084312472105,-21.94262568758156,642.8484089944254 -48.95408427832425,-21.94261653051916,647.296161557726 -48.954084244076924,-21.942607323549026,651.7609156590274 -48.954084209749034,-21.94259807286894,656.2396305852586 -48.954084175383066,-21.942588784545563,660.7293289545462 -48.95408414103739,-21.942579464643806,665.2270354081923 -48.95408410677555,-21.942570119253613,669.7297684311014 -48.95408406249337,-21.942557953262913,675.5806204203519 -48.95408402949384,-21.942548815425244,679.9670946496994 -48.9540839966995,-21.942539672466722,684.3491009486032 -48.954083964116926,-21.94253053010082,688.7239050319083 -48.9540839588414,-21.942529044631,689.4340785641324 -48.95408395357127,-21.9425275593555,690.1439767763205 -48.95408394830647,-21.94252607429714,690.8535888600084 -48.95408393779267,-21.942523104898,692.2719232937769 -48.95408392729942,-21.942520136544847,693.6890293785333 -48.95408391682597,-21.942517169294835,695.1048804875215 -48.954083906371544,-21.94251420315605,696.5194733816577 -48.954083892293724,-21.942510202563884,698.4262582121571 -48.954083878247594,-21.94250620396466,700.3307689703335 -48.95408386423202,-21.942502207331508,702.2330195626856 -48.95408385024633,-21.94249821265395,704.1330158761273 -48.95408383629034,-21.942494219936755,706.0307563174958 -48.95408381003507,-21.942486690358088,709.6059631192024 -48.954083783891846,-21.942479167794197,713.1731235895033 -48.954083757869185,-21.942471652214397,716.7322527237999 -48.954083731977306,-21.942464143563242,720.2833765711046 -48.954083706226044,-21.94245664179247,723.8265178167031 -48.95408366399821,-21.942444260372262,729.6639839877467 -48.95408362218694,-21.94243189753795,735.4797626732146 -48.95408361503677,-21.94242977263654,736.4780642604196 -48.95408360789863,-21.942427648281758,737.475726398854 -48.95408360077232,-21.94242552447326,738.4727494200155 -48.95408358655429,-21.94242127849308,740.4648799889806 -48.954083572381414,-21.942417034693218,742.4544585060822 -48.95408355825229,-21.942412793070694,744.4414877258787 -48.954083518613366,-21.942400837326467,750.0340385651307 -48.954083479287895,-21.94238889881768,755.6063792820108 -48.954083440259076,-21.94237697745758,761.1585754772274 -48.95408340152533,-21.942365073149386,766.6906896574909 -48.95408336707256,-21.94235441831418,771.6318337266686 -48.95408333288194,-21.942343776998747,776.5569439921796 -48.954083298964946,-21.942333149129176,781.4660604800277 -48.95408325761508,-21.94232009055353,787.4845294024137 -48.9540832166929,-21.942307052107406,793.478920419599 -48.954083176189535,-21.942294033661806,799.4493207707083 -48.95408313608393,-21.94228103510991,805.3958108477141 -48.95408309635268,-21.94226805635066,811.3184686655294 -48.954083056979314,-21.942255097277542,817.2173714582204 -48.954083017959675,-21.94224215777321,823.0925958505101 -48.95408297777257,-21.942228723423188,829.176839465374 -48.95408294546195,-21.942217837513375,834.0951799320267 -48.954082913428024,-21.94220696526552,838.9968177644593 -48.95408288167497,-21.942196106605763,843.8817969017127 -48.95408284176932,-21.942182341088785,850.0593125327587 -48.95408280230633,-21.942168597220167,856.2101441028381 -48.95408276327183,-21.942154874873218,862.3343796080597 -48.9540827194298,-21.94213931034259,869.2601867984367 -48.95408267610843,-21.942123773255858,876.1518938206185 -48.9540826332989,-21.94210826339616,883.0096418113137 -48.954082591005985,-21.942092780555594,889.8335580244693 -48.95408253387599,-21.942071593815452,899.1358298618381 -48.954082490349144,-21.942055225797805,906.2941120923587 -48.95408244743686,-21.942038887443136,913.4147385175155 -48.95408240512109,-21.942022578536747,920.497853282175 -48.95408236337185,-21.942006298876766,927.5435999796971 -48.95408232216524,-21.941990048258813,934.552120245438 -48.95408228149807,-21.94197382646153,941.5235532603855 -48.95408224138849,-21.941957633244847,948.4580359980109 -48.95408220186176,-21.94194146836326,955.3557038144071 -48.95408216737403,-21.941927185272913,961.4298035835018 -48.95408213334369,-21.94191292405619,967.4752643593091 -48.9540820997513,-21.941898684583872,973.4921783181678 -48.95408206657537,-21.941884466728308,979.4806367938075 -48.95408202573611,-21.941866753531084,986.9142153241255 -48.954081993877516,-21.941852769020734,992.7616980601937 -48.95408196241562,-21.94183880511078,998.5817454057262 -48.95408193136515,-21.94182486165288,1004.3744408226396 -48.954081900739396,-21.941810938503256,1010.1398671239359 -48.95408186700109,-21.94179539369577,1016.5545021405848 -48.954081860642994,-21.94179243907446,1017.7710728349557 -48.95408185430367,-21.941789485358413,1018.9864181145552 -48.954081847982806,-21.941786532546587,1020.2005387012407 -48.95408183539515,-21.941780629629598,1022.625109872993 -48.95408182287849,-21.941774730315387,1025.044791852145 -48.95408181043147,-21.941768834595177,1027.4595906005966 -48.95408178514844,-21.94175676951232,1032.3906318476268 -48.954081760149116,-21.941744719385458,1037.3012661965572 -48.95408173543324,-21.941732684134763,1042.1915437842988 -48.95408170635598,-21.941718363010462,1047.9919702832221 -48.95408167768928,-21.941704062753235,1053.763646079198 -48.95408164943945,-21.941689783199365,1059.506665635773 -48.954081621610634,-21.941675524198878,1065.2211149898933 -48.95408158528253,-21.941656609230947,1072.7700823068672 -48.95408157922021,-21.941653418330766,1074.0400314989154 -48.954081573178634,-21.941650228448072,1075.3085527810745 -48.954081567157694,-21.941647039581547,1076.5756470152128 -48.954081555177076,-21.941640664889615,1079.1055592256841 -48.95408154327751,-21.941634294245013,1081.6297747269793 -48.954081531458094,-21.941627927636848,1084.1483006637495 -48.95408150292661,-21.941612398098982,1090.2743567281095 -48.95408147485926,-21.94159689237894,1096.3666442632657 -48.95408144725244,-21.941581410309812,1102.425264000253 -48.954081411412865,-21.941560949276756,1110.3948212206894 -48.95408137638624,-21.941540528978642,1118.3057909619665 -48.95408134217405,-21.941520149024864,1126.1584048770337 -48.954081304593664,-21.94149723223983,1134.9372649395148 -48.9540812680287,-21.94147436569764,1143.6426212350893 -48.95408123245619,-21.941451548806143,1152.2748352205156 -48.954081197852354,-21.94142878103383,1160.834231643029 -48.95408115319224,-21.941398494741694,1172.1357983725673 -48.95408114504091,-21.94139285015693,1174.231431647742 -48.95408113694865,-21.941387208532095,1176.3226017271677 -48.954081128915696,-21.941381569859583,1178.40931292309 -48.954081113027996,-21.941370301329112,1182.5693830796417 -48.95408109737764,-21.941359044508783,1186.7116750354926 -48.95408108196367,-21.94134779933785,1190.8362243890879 -48.95408104228099,-21.941318088370636,1201.6688661319004 -48.95408100419726,-21.941288457403743,1212.3781566355287 -48.954080967678856,-21.9412589053754,1222.9647246187988 -48.95408093270036,-21.941229431195442,1233.4292080877876 -48.95408089924371,-21.94120003377054,1243.772240001748 -48.95408086729302,-21.941170712016955,1253.994443797443 -48.95408082366808,-21.941128388218193,1268.5824575862214 -48.95408078309574,-21.941086217890614,1282.920123166567 -48.95408074549183,-21.941044197653707,1297.0093750645658 -48.95408071078285,-21.941002324431988,1310.851956841215 -48.95408067475456,-21.940954881566626,1326.2959367546184 -48.9540806423076,-21.940907620718644,1341.4254421123132 -48.95408061334954,-21.940860537691865,1356.2427891281054 -48.95408058777845,-21.940813628380432,1370.7502297036008 -48.954080558104955,-21.940749744818177,1390.0941381232115 -48.95408053911632,-21.940700252659617,1404.7501723375808 -48.95408052360898,-21.94065094195352,1419.0634503361484 -48.95408051148156,-21.94060180818824,1433.0363323053546 -48.9540805026105,-21.940552846960916,1446.6711095111166 -48.95408049685426,-21.94050405397667,1459.9700013161487 -48.95408049618911,-21.94049596464033,1462.1467901051185 -48.95408049560594,-21.940487879810885,1464.3143791650482 -48.95408049510491,-21.94047979946863,1466.4727780476842 -48.954080494686096,-21.940471723594065,1468.6219962621365 -48.95408049409465,-21.940455585171215,1472.892928400926 -48.95408049383022,-21.940439464389623,1477.127250707035 -48.95408049388989,-21.940423361098947,1481.3250375469688 -48.95408049426915,-21.940407275151124,1485.4863624986679 -48.95408049559518,-21.94038050611377,1492.3403799581438 -48.954080497762384,-21.940353784167478,1499.093669401383 -48.95408050074002,-21.94032710865322,1505.7465563361734 -48.95408050450478,-21.940300478914335,1512.2993599981223 -48.954080509043,-21.94027389429406,1518.7523936050125 -48.95408051660394,-21.940237073447534,1527.5432372003927 -48.95408052560365,-21.940200336521468,1536.1433158650714 -48.95408053598913,-21.940163681837937,1544.5534119602232 -48.9540805476868,-21.94012710776571,1552.7742881566203 -48.95408056062001,-21.940090612705795,1560.806687212482 -48.95408057472758,-21.9400541950705,1568.6513312630143 -48.954080589968946,-21.940017853273933,1576.3089216723795 -48.954080606312665,-21.939981585743368,1583.780140070093 -48.95408060971097,-21.939974341010405,1585.2520786179255 -48.95408061315124,-21.9399670991733,1586.7165946847906 -48.95408061663293,-21.939959860221204,1588.1736930910592 -48.954080623718426,-21.93994539093107,1591.0656549786395 -48.954080630962416,-21.93993093304725,1593.9280050870948 -48.95408063835921,-21.939916486471503,1596.7607863816233 -48.954080645903126,-21.93990205111029,1599.564039386416 -48.954080658772895,-21.93987804554653,1604.1651602749828 -48.95408067201196,-21.939854070381244,1608.6847426489003 -48.954080685600566,-21.939830125192344,1613.122963039501 -48.954080699522684,-21.93980620956061,1617.479994548372 -48.954080719848605,-21.939772283196184,1623.53065455121 -48.95408074078035,-21.939738414472636,1629.4182677823815 -48.954080762271566,-21.939704602236354,1635.1432953832157 -48.954080784262445,-21.939670845357654,1640.7061861663753 -48.95408080668289,-21.93963714273103,1646.10737754301 -48.95408082946022,-21.939603493273246,1651.3472951436825 -48.95408085252533,-21.93956989591912,1656.426352320965 -48.95408087581415,-21.939536349616958,1661.3449499981048 -48.95408090370007,-21.93949654147714,1666.9830196360888 -48.95408093170981,-21.93945680227696,1672.3955746893585 -48.9540809597341,-21.939417130331332,1677.583225444037 -48.954080987657186,-21.93937752399597,1682.5465611827947 -48.95408101535593,-21.939337981667503,1687.2861501949862 -48.95408104269978,-21.939298501779426,1691.8025403287222 -48.9540810695522,-21.939259082796813,1696.0962594286204 -48.95408109577429,-21.939219723211885,1700.1678157010867 -48.95408112122894,-21.93918042154155,1704.0176981751094 -48.95408114578435,-21.93914117632654,1707.6463772950754 -48.95408116931537,-21.93910198613116,1711.0543055511139 -48.95408119170261,-21.939062849542637,1714.2419180223728 -48.95408120932367,-21.93903042210678,1716.719416620689 -48.954081226013344,-21.93899802982079,1719.04580972329 -48.95408124170876,-21.93896567190859,1721.2213190114715 -48.95408125635003,-21.938933347600955,1723.2461584917153 -48.954081273388226,-21.938892221210857,1725.6074810762764 -48.95408128853698,-21.938851146543648,1727.7250857301083 -48.954081301740004,-21.938810122053642,1729.5993566464404 -48.954081312985124,-21.938769146213687,1731.2306565202366 -48.954081322310856,-21.938728217522613,1732.6193264478168 -48.954081329287874,-21.938690503120444,1733.6854510290068 -48.95408133481544,-21.938652826480638,1734.545615696225 -48.9540813390398,-21.938615186541586,1735.2000309963594 -48.95408134215156,-21.938577582308703,1735.648888191859 -48.95408134439372,-21.938540012875112,1735.8923597220316 -48.954081345582374,-21.938514243166193,1735.940687761385 -48.954081345645385,-21.938512747742266,1735.9405243263295 -48.95408134573633,-21.93851055679541,1735.9393470143236 -48.95408134582634,-21.938508365962473,1735.9374705111156 -48.95408134600463,-21.93850398452421,1735.9323191740098 -48.95408134617978,-21.938499603540677,1735.9243712793832 -48.954081346352375,-21.93849522301094,1735.913627033133 -48.95408134748033,-21.938466074786096,1735.7708580311507 -48.95408134870886,-21.9384369463985,1735.5042449751488 -48.954081350229735,-21.938407837679318,1735.1138396512108 -48.95408135223931,-21.938378748526535,1734.599690450925 -48.9540813560574,-21.93833962298822,1733.712291677359 -48.9540813615638,-21.93830053299021,1732.6008722168056 -48.95408136916135,-21.938261478896273,1731.2655490060206 -48.95408137061888,-21.938255131260796,1731.0272376411428 -48.95408137084924,-21.938254150061073,1730.9898000729845 -48.95408137107843,-21.938253173996277,1730.9524185607472 -48.954081371534485,-21.93825123203473,1730.8777652027334 -48.95408137198593,-21.938249310207123,1730.8033263123384 -48.954081372432846,-21.93824740811575,1730.729092324559 -48.95408137477987,-21.938237426409348,1730.3299212823956 -48.95408137700839,-21.938227957388538,1729.9351599856286 -48.954081379128525,-21.938218953626745,1729.543676924872 -48.954081381149,-21.93821037385774,1729.1544935295735 -48.95408138404734,-21.938198059682012,1728.5652061165572 -48.95408138675489,-21.93818653734464,1727.9768201821862 -48.95408138928992,-21.93817571895037,1727.3873212331384 -48.954081391667636,-21.938165530450185,1726.7950435232915 -48.95408139390065,-21.93815590997894,1726.1986372136334 -48.95408139733639,-21.938140965194638,1725.190148793535 -48.954081400436785,-21.938127261395596,1724.1631508663293 -48.95408140323282,-21.938114638905546,1723.1147945690798 -48.95408140574833,-21.93810297194172,1722.0432013569055 -48.9540814080025,-21.938092157482146,1720.9471757185281 -48.954081410010986,-21.93808211016974,1719.826064586438 -48.95408141281178,-21.938067079597484,1717.9285395538755 -48.954081415030444,-21.938053674989938,1715.9639983757377 -48.954081416705414,-21.938041692947163,1713.9353964730763 -48.954081417869965,-21.938030968020886,1711.8469136142403 -48.954081418554466,-21.938021361434103,1709.7034300626035 -48.95408141878758,-21.938012754449424,1707.5101863473813 -48.954081418236534,-21.93800023896042,1703.719317998635 -48.954081416611935,-21.937989846477297,1699.8265578759135 -48.95408141403614,-21.937981227556325,1695.8535337054616 -48.95408141062481,-21.93797408905797,1691.8185910067734 -48.95408140648546,-21.937968183345365,1687.7366432969454 -48.954081401716046,-21.93796330251696,1683.619550615613 -48.95408139575717,-21.937958852701147,1678.9947040461643 -48.95408138923049,-21.93795526155531,1674.3471167823488 -48.9540813822288,-21.937952365370823,1669.683793172864 -48.95408137483128,-21.9379500307838,1665.0097714205633 -48.95408136710502,-21.937948149543907,1660.3286209768262 -48.95408135698332,-21.937946291019518,1654.4214310783718 -48.95408134652116,-21.93794487642544,1648.5103010365744 -48.95408133579282,-21.937943799333063,1642.5974114491219 -48.954081324856745,-21.937942979596396,1636.6840414147946 -48.95408131375916,-21.93794235585675,1630.7710312167596 -48.954081302536515,-21.937941881288786,1624.8589259161472 -48.954081291217484,-21.93794152025526,1618.948047647892 -48.95408126829474,-21.93794103730654,1607.090007865149 -48.954081245201586,-21.937940754408686,1595.2385868602883 -48.954081222013855,-21.93794059036649,1583.3938649566733 -48.954081198777985,-21.937940497639655,1571.5557980536635 -48.95408117449657,-21.937940441882184,1559.2014258347665 -48.95408115021372,-21.937940412264968,1546.8547453350718 -48.95408112594298,-21.93794039622627,1534.515690494461 -48.9540811138115,-21.937940390859108,1528.3472746512655 -48.9540811016857,-21.937940386589254,1522.1807098770948 -48.95408108956573,-21.937940383385136,1516.0160268024456 -48.954081077477476,-21.937940380997134,1509.8662401965598 -48.95408106539559,-21.93794037920863,1503.7183251062427 -48.95408105332026,-21.937940377868653,1497.5722780386757 -48.9540810292231,-21.937940376106646,1485.3027364064442 -48.95408100515332,-21.937940375151474,1473.040629499118 -48.9540809811114,-21.937940374613405,1460.785945940447 -48.95408095713901,-21.93794037429797,1448.5598165698098 -48.95408081794489,-21.93794037356559,1377.4314492052997 -48.95408067969799,-21.93794037367924,1306.551406688247 -48.95408054238939,-21.93794037380172,1235.917812885593 -48.954080311915725,-21.937940373953804,1116.8278592148092 -48.95408008405947,-21.93794037386522,998.4314678293541 -48.95407985877037,-21.937940373721077,880.7197523327058 -48.95407974286225,-21.937940373668592,819.9050263250762 -48.95407974099011,-21.937940373668727,818.9213148131836 -48.95407973911816,-21.93794037366885,817.9376508864058 -48.95407970350331,-21.93794037366943,799.2147835956865 -48.9540797033763,-21.937940373669427,799.1480043639423 -48.95407970324999,-21.937940373669424,799.0816159866455 -48.95407970299876,-21.93794037366942,798.9496074286011 -48.95407970275026,-21.937940373669413,798.8191084832073 -48.95407970250443,-21.93794037366941,798.6900669261198 -48.9540797014393,-21.937940373669385,798.1314716851269 -48.95407970041961,-21.937940373669363,797.5969256829187 -48.954079699440534,-21.93794037366934,797.0832432245936 -48.95407969849795,-21.93794037366931,796.587737313913 -48.95407969714783,-21.937940373669278,795.8751901903427 -48.95407969586199,-21.937940373669235,795.1921340043455 -48.95407969463255,-21.937940373669196,794.5336367860913 -48.954079693452925,-21.937940373669157,793.8956626234225 -48.954079692317706,-21.937940373669118,793.2749799165396 -48.954079690302656,-21.93794037366904,792.1541309470165 -48.954079688402665,-21.93794037366897,791.0712496543762 -48.95407968659885,-21.93794037366889,790.016528337728 -48.95407968487674,-21.937940373668816,788.9831434951259 -48.9540796832245,-21.937940373668738,787.9659651063018 -48.95407968163228,-21.937940373668667,786.9610417879878 -48.954079679310325,-21.93794037366855,785.4515353258608 -48.95407967708524,-21.93794037366844,783.9566298345147 -48.95407967493878,-21.93794037366833,782.4715046263726 -48.95407967285637,-21.93794037366822,780.9929551975678 -48.954079670826275,-21.937940373668113,779.5188506965604 -48.954079668132515,-21.937940373667974,777.5186359137953 -48.95407966549938,-21.937940373667836,775.5217858754703 -48.954079662912505,-21.9379403736677,773.5269370364456 -48.954079660361124,-21.937940373667573,771.5333929526455 -48.95407965766705,-21.937940373667434,769.4063839966926 -48.95407965499677,-21.937940373667303,767.2800431784078 -48.95407965234437,-21.93794037366717,765.1541529974533 -48.9540796496993,-21.93794037366704,763.0236717282548 -48.95407964706449,-21.93794037366691,760.893480226248 -48.95407964443748,-21.937940373666784,758.7635526641941 -48.95407964181667,-21.937940373666656,756.6340681482262 -48.95407963920044,-21.937940373666528,754.5048199112172 -48.95407963658777,-21.937940373666404,752.3758021047545 -48.954079621340824,-21.937940373665676,739.927775825417 -48.95407960613517,-21.937940373664954,727.4873894790958 -48.95407959095167,-21.93794037366424,715.0546053468609 -48.95407954456258,-21.937940373662055,677.0387640466605 -48.95407949832411,-21.93794037365988,639.0937585223033 -48.95407945223434,-21.937940373657714,601.2192874487899 -48.95407934300121,-21.937940373652594,511.2477269285922 -48.95407923459901,-21.93794037364753,421.67007433677145 -48.95407923258129,-21.937940373647436,419.99999918866695</coordinates>
            </LineString>
        </Placemark>
    </Document>
</kml>
